{
    "links": {
        "self": "http://www.neowsapp.com/rest/v1/neo/3838897?api_key=iIulBulltgU6a56xZRHN4H3l9WmuAYTsLGpBGhQ2"
    },
    "id": "3838897",
    "neo_reference_id": "3838897",
    "name": "(2019 EA1)",
    "designation": "2019 EA1",
    "nasa_jpl_url": "http://ssd.jpl.nasa.gov/sbdb.cgi?sstr=3838897",
    "absolute_magnitude_h": 24.1,
    "estimated_diameter": {
        "kilometers": {
            "estimated_diameter_min": 0.040230458,
            "estimated_diameter_max": 0.0899580388
        },
        "meters": {
            "estimated_diameter_min": 40.2304579834,
            "estimated_diameter_max": 89.9580388169
        },
        "miles": {
            "estimated_diameter_min": 0.0249980399,
            "estimated_diameter_max": 0.0558973165
        },
        "feet": {
            "estimated_diameter_min": 131.9896957704,
            "estimated_diameter_max": 295.1379320721
        }
    },
    "is_potentially_hazardous_asteroid": false,
    "close_approach_data": [
        {
            "close_approach_date": "2019-03-06",
            "close_approach_date_full": "2019-Mar-06 12:59",
            "epoch_date_close_approach": 1551877140000,
            "relative_velocity": {
                "kilometers_per_second": "27.7755562998",
                "kilometers_per_hour": "99992.0026792699",
                "miles_per_hour": "62131.1418870164"
            },
            "miss_distance": {
                "astronomical": "0.0563390597",
                "lunar": "21.9158942233",
                "kilometers": "8428203.328922839",
                "miles": "5237042.7036956182"
            },
            "orbiting_body": "Earth"
        }
    ],
    "orbital_data": {
        "orbit_id": "2",
        "orbit_determination_date": "2019-03-26 06:57:32",
        "first_observation_date": "2019-03-04",
        "last_observation_date": "2019-03-06",
        "data_arc_in_days": 2,
        "observations_used": 20,
        "orbit_uncertainty": "9",
        "minimum_orbit_intersection": ".0533414",
        "jupiter_tisserand_invariant": "4.392",
        "epoch_osculation": "2458547.5",
        "eccentricity": ".761849315558809",
        "semi_major_axis": "1.376473226918018",
        "inclination": "23.42794139742074",
        "ascending_node_longitude": "157.9851570927633",
        "orbital_period": "589.8615391707333",
        "perihelion_distance": ".3278080411055008",
        "perihelion_argument": "131.4380704747767",
        "aphelion_distance": "2.425138412730535",
        "perihelion_time": "2458596.303754506894",
        "mean_anomaly": "330.2144478733399",
        "mean_motion": ".6103127193308993",
        "equinox": "J2000",
        "orbit_class": {
            "orbit_class_type": "APO",
            "orbit_class_description": "Near-Earth asteroid orbits which cross the Earth’s orbit similar to that of 1862 Apollo",
            "orbit_class_range": "a (semi-major axis) > 1.0 AU; q (perihelion) < 1.017 AU"
        }
    },
    "is_sentry_object": false
}